{
    "links": {
        "self": "http://www.neowsapp.com/rest/v1/neo/3761352?api_key=iIulBulltgU6a56xZRHN4H3l9WmuAYTsLGpBGhQ2"
    },
    "id": "3761352",
    "neo_reference_id": "3761352",
    "name": "(2016 UQ5)",
    "designation": "2016 UQ5",
    "nasa_jpl_url": "http://ssd.jpl.nasa.gov/sbdb.cgi?sstr=3761352",
    "absolute_magnitude_h": 25.0,
    "estimated_diameter": {
        "kilometers": {
            "estimated_diameter_min": 0.02658,
            "estimated_diameter_max": 0.0594346868
        },
        "meters": {
            "estimated_diameter_min": 26.58,
            "estimated_diameter_max": 59.4346868419
        },
        "miles": {
            "estimated_diameter_min": 0.0165160412,
            "estimated_diameter_max": 0.0369309908
        },
        "feet": {
            "estimated_diameter_min": 87.2047272,
            "estimated_diameter_max": 194.9956979785
        }
    },
    "is_potentially_hazardous_asteroid": false,
    "close_approach_data": [
        {
            "close_approach_date": "1942-09-28",
            "close_approach_date_full": "1942-Sep-28 03:22",
            "epoch_date_close_approach": -860272680000,
            "relative_velocity": {
                "kilometers_per_second": "17.7202726347",
                "kilometers_per_hour": "63792.9814849063",
                "miles_per_hour": "39638.4778565519"
            },
            "miss_distance": {
                "astronomical": "0.3324759494",
                "lunar": "129.3331443166",
                "kilometers": "49737693.856467778",
                "miles": "30905569.8520922164"
            },
            "orbiting_body": "Earth"
        },
        {
            "close_approach_date": "2016-10-30",
            "close_approach_date_full": "2016-Oct-30 13:04",
            "epoch_date_close_approach": 1477832640000,
            "relative_velocity": {
                "kilometers_per_second": "8.1347081907",
                "kilometers_per_hour": "29284.9494866646",
                "miles_per_hour": "18196.5287518667"
            },
            "miss_distance": {
                "astronomical": "0.035655653",
                "lunar": "13.870049017",
                "kilometers": "5334009.74225911",
                "miles": "3314399.963071318"
            },
            "orbiting_body": "Earth"
        }
    ],
    "orbital_data": {
        "orbit_id": "6",
        "orbit_determination_date": "2017-04-06 08:22:53",
        "first_observation_date": "2016-10-21",
        "last_observation_date": "2016-11-04",
        "data_arc_in_days": 14,
        "observations_used": 69,
        "orbit_uncertainty": "7",
        "minimum_orbit_intersection": ".0341858",
        "jupiter_tisserand_invariant": "3.772",
        "epoch_osculation": "2459000.5",
        "eccentricity": ".4872115930878123",
        "semi_major_axis": "1.912115810493745",
        "inclination": "7.240630310997703",
        "ascending_node_longitude": "23.97993886784835",
        "orbital_period": "965.7611160391045",
        "perihelion_distance": ".9805108202946943",
        "perihelion_argument": "38.1375503031868",
        "aphelion_distance": "2.843720800692796",
        "perihelion_time": "2458679.421152470090",
        "mean_anomaly": "119.6863108185933",
        "mean_motion": ".3727629887155482",
        "equinox": "J2000",
        "orbit_class": {
            "orbit_class_type": "APO",
            "orbit_class_description": "Near-Earth asteroid orbits which cross the Earth’s orbit similar to that of 1862 Apollo",
            "orbit_class_range": "a (semi-major axis) > 1.0 AU; q (perihelion) < 1.017 AU"
        }
    },
    "is_sentry_object": false
}